NORAD_CAT_ID,OBJECT_NAME,OBJECT_TYPE,EPOCH,MEAN_MOTION,ECCENTRICITY,INCLINATION,RA_OF_ASC_NODE,ARG_OF_PERICENTER,MEAN_ANOMALY,BSTAR,MEAN_MOTION_DOT,MEAN_MOTION_DDOT,TLE_LINE0,TLE_LINE1,TLE_LINE2,SEMIMAJOR_AXIS,PERIOD,APOGEE,PERIGEE,DECAYED
51956.0,STARLINK-3700,PAYLOAD,2022-10-23 22:54:48,15.08857059,0.0001974,53.215,163.0861,49.2524,310.8640000000001,0.00025862,3.832e-05,0.0,0 STARLINK-3700,1 51956U 22025A   22296.95473136  .00003832  00000-0  25862-3 0  9998,2 51956  53.2150 163.0861 0001974  49.2524 310.8640 15.08857059 36184,6917.828,95.436,541.059,538.328,0.0
51956.0,STARLINK-3700,PAYLOAD,2022-10-24 08:27:07,15.08846666,0.000205,53.2157,161.3007,48.4681,311.6487,1.4072e-05,-6.4e-07,0.0,0 STARLINK-3700,1 51956U 22025A   22297.35217290 -.00000064  00000-0  14072-4 0  9997,2 51956  53.2157 161.3007 0002050  48.4681 311.6487 15.08846666 36242,6917.86,95.437,541.143,538.307,0.0
51956.0,STARLINK-3700,PAYLOAD,2022-10-24 17:59:27,15.08821585,0.0001846,53.2149,159.5174,48.9289,311.1862,-0.00047865,-7.894e-05,0.0,0 STARLINK-3700,1 51956U 22025A   22297.74962180 -.00007894  00000-0 -47865-3 0  9999,2 51956  53.2149 159.5174 0001846  48.9289 311.1862 15.08821585 35219,6917.937,95.439,541.0790000000002,538.525,0.0
51956.0,STARLINK-3700,PAYLOAD,2022-10-24 21:10:13,15.08816387,0.0002004,53.215,158.9235,44.0038,316.1113,-0.00051587,-8.484e-05,0.0,0 STARLINK-3700,1 51956U 22025A   22297.88210547 -.00008484  00000-0 -51587-3 0  9999,2 51956  53.2150 158.9235 0002004  44.0038 316.1113 15.08816387 36329,6917.953,95.439,541.2040000000002,538.431,0.0
51956.0,STARLINK-3700,PAYLOAD,2022-10-25 00:21:00,15.08815493,0.0002013,53.2149,158.3286,45.8901,314.2256,-0.00044393,-7.342e-05,0.0,0 STARLINK-3700,1 51956U 22025A   22298.01458804 -.00007342  00000-0 -44393-3 0  9994,2 51956  53.2149 158.3286 0002013  45.8901 314.2256 15.08815493 35250,6917.955,95.439,541.2130000000002,538.428,0.0
51956.0,STARLINK-3700,PAYLOAD,2022-10-25 19:25:38,15.08833608,0.0002048,53.215,154.7603,45.3225,314.7934,0.00035629,5.386e-05,0.0,0 STARLINK-3700,1 51956U 22025A   22298.80947274  .00005386  00000-0  35629-3 0  9991,2 51956  53.2150 154.7603 0002048  45.3225 314.7934 15.08833608 36467,6917.9,95.438,541.182,538.3480000000002,0.0
51956.0,STARLINK-3700,PAYLOAD,2022-10-26 00:11:48,15.0884128,0.0002066999999999,53.2147,153.8683,45.3497,314.7664,0.00098575,0.00015436,0.0,0 STARLINK-3700,1 51956U 22025A   22299.00819599  .00015436  00000-0  98575-3 0  9998,2 51956  53.2147 153.8683 0002067  45.3497 314.7664 15.08841280 35401,6917.876,95.437,541.1709999999998,538.312,0.0
51956.0,STARLINK-3700,PAYLOAD,2022-10-26 19:16:25,15.08856795,0.0002101,53.2151,150.2991,45.6239,314.4925,0.00069573,0.00010807,0.0,0 STARLINK-3700,1 51956U 22025A   22299.80307091  .00010807  00000-0  69573-3 0  9998,2 51956  53.2151 150.2991 0002101  45.6239 314.4925 15.08856795 35522,6917.829000000002,95.436,541.1469999999998,538.241,0.0
51956.0,STARLINK-3700,PAYLOAD,2022-10-27 04:48:43,15.08854996,0.0002169,53.2154,148.5142,48.1496,311.9681,0.0003474,5.247e-05,0.0,0 STARLINK-3700,1 51956U 22025A   22300.20050822  .00005247  00000-0  34740-3 0  9992,2 51956  53.2154 148.5142 0002169  48.1496 311.9681 15.08854996 35588,6917.835,95.437,541.2,538.1990000000002,0.0
51956.0,STARLINK-3700,PAYLOAD,2022-10-27 20:42:34,15.08850703,0.0002065,53.2152,145.5411,50.3644,309.7531,0.00014544,2.028e-05,0.0,0 STARLINK-3700,1 51956U 22025A   22300.86290467  .00002028  00000-0  14544-3 0  9999,2 51956  53.2152 145.5411 0002065  50.3644 309.7531 15.08850703 35689,6917.848000000001,95.437,541.141,538.284,0.0
51956.0,STARLINK-3700,PAYLOAD,2022-10-27 22:17:58,15.08850301,0.0002053,53.2152,145.2438,50.0478,310.0695,0.00016269,2.303e-05,0.0,0 STARLINK-3700,1 51956U 22025A   22300.92914510  .00002303  00000-0  16269-3 0  9990,2 51956  53.2152 145.2438 0002053  50.0478 310.0695 15.08850301 36786,6917.849,95.437,541.134,538.294,0.0
51956.0,STARLINK-3700,PAYLOAD,2022-10-28 06:14:53,15.08850468,0.0002082,53.2153,143.7569,50.44,309.6775,0.00011578,1.555e-05,0.0,0 STARLINK-3700,1 51956U 22025A   22301.26034269  .00001555  00000-0  11578-3 0  9998,2 51956  53.2153 143.7569 0002082  50.4400 309.6775 15.08850468 35748,6917.848000000001,95.437,541.154,538.273,0.0
51956.0,STARLINK-3700,PAYLOAD,2022-10-28 18:57:58,15.0884518,0.0002008999999999,53.2156,141.3782,48.5097,311.6067,-2.8127e-05,-7.36e-06,0.0,0 STARLINK-3700,1 51956U 22025A   22301.79026173 -.00000736  00000-0 -28127-4 0  9992,2 51956  53.2156 141.3782 0002009  48.5097 311.6067 15.08845180 35822,6917.865,95.437,541.119,538.34,0.0
51956.0,STARLINK-3700,PAYLOAD,2022-10-28 20:33:21,15.088443099999996,0.0002000999999999,53.2156,141.0806,50.758,309.3589,-3.4963000000000004e-05,-8.45e-06,0.0,0 STARLINK-3700,1 51956U 22025A   22301.85650171 -.00000845  00000-0 -34963-4 0  9996,2 51956  53.2156 141.0806 0002001  50.7580 309.3589 15.08844310 36929,6917.8669999999975,95.437,541.116,538.3480000000002,0.0
51956.0,STARLINK-3700,PAYLOAD,2022-10-28 22:08:45,15.08844935,0.000196,53.2166,140.7835,50.9049,309.2117,8.5399e-07,-2.75e-06,0.0,0 STARLINK-3700,1 51956U 22025A   22301.92274481 -.00000275  00000-0  85399-6 0  9997,2 51956  53.2166 140.7835 0001960  50.9049 309.2117 15.08844935 35842,6917.865,95.437,541.086,538.374,0.0
51956.0,STARLINK-3700,PAYLOAD,2022-10-29 20:24:09,15.08841691,0.0001904,53.2168,136.6198,47.0957,313.0195,8.021699999999998e-07,-2.75e-06,0.0,0 STARLINK-3700,1 51956U 22025A   22302.85010441 -.00000275  00000-0  80217-6 0  9998,2 51956  53.2168 136.6198 0001904  47.0957 313.0195 15.08841691 35983,6917.875,95.437,541.057,538.423,0.0
51956.0,STARLINK-3700,PAYLOAD,2022-10-31 12:08:47,15.08835619,0.0001883,53.2166,129.1856,46.5328,313.5821,7.884e-05,9.67e-06,0.0,0 STARLINK-3700,1 51956U 22025A   22304.50610900  .00000967  00000-0  78840-4 0  9992,2 51956  53.2166 129.1856 0001883  46.5328 313.5821 15.08835619 36234,6917.894,95.438,541.061,538.456,0.0
51956.0,STARLINK-3700,PAYLOAD,2022-10-31 18:30:20,15.08836298,0.0001896999999999,53.2166,127.9961,46.9036,313.2114,7.988199999999999e-05,9.83e-06,0.0,0 STARLINK-3700,1 51956U 22025A   22304.77106957  .00000983  00000-0  79882-4 0  9998,2 51956  53.2166 127.9961 0001897  46.9036 313.2114 15.08836298 37363,6917.892,95.438,541.069,538.444,0.0
51956.0,STARLINK-3700,PAYLOAD,2022-11-01 11:59:34,15.08843446,0.0002051,53.2166,124.725,50.0456,310.0716,4.7064e-05,4.61e-06,0.0,0 STARLINK-3700,1 51956U 22025A   22305.49970480  .00000461  00000-0  47064-4 0  9996,2 51956  53.2166 124.7250 0002051  50.0456 310.0716 15.08843446 36381,6917.87,95.437,541.154,538.316,0.0
51956.0,STARLINK-3700,PAYLOAD,2022-11-01 18:21:07,15.0883668,0.0001839,53.216,123.5348,47.1648,312.9498,8.212299999999999e-05,1.019e-05,0.0,0 STARLINK-3700,1 51956U 22025A   22305.76467035  .00001019  00000-0  82123-4 0  9998,2 51956  53.2160 123.5348 0001839  47.1648 312.9498 15.08836680 36428,6917.891,95.438,541.028,538.4830000000002,0.0
51956.0,STARLINK-3700,PAYLOAD,2022-11-02 05:28:49,15.08838275,0.0001833,53.2167,121.4538,45.9366,314.1777,8.588399999999999e-05,1.079e-05,0.0,0 STARLINK-3700,1 51956U 22025A   22306.22835049  .00001079  00000-0  85884-4 0  9997,2 51956  53.2167 121.4538 0001833  45.9366 314.1777 15.08838275 37584,6917.886,95.438,541.019,538.4830000000002,0.0
51956.0,STARLINK-3700,PAYLOAD,2022-11-02 11:50:21,15.08842674,0.0001794,53.2166,120.264,44.6374,315.4763,0.00010652,1.408e-05,0.0,0 STARLINK-3700,1 51956U 22025A   22306.49330704  .00001408  00000-0  10652-3 0  9990,2 51956  53.2166 120.2640 0001794  44.6374 315.4763 15.08842674 36536,6917.871999999999,95.437,540.9780000000002,538.496,0.0
51956.0,STARLINK-3700,PAYLOAD,2022-11-02 18:11:54,15.08835416,0.0001916,53.2171,119.0758,44.3304,315.7841,4.4313e-06,-2.18e-06,0.0,0 STARLINK-3700,1 51956U 22025A   22306.75827467 -.00000218  00000-0  44313-5 0  9998,2 51956  53.2171 119.0758 0001916  44.3304 315.7841 15.08835416 36574,6917.894,95.438,541.085,538.434,0.0
51956.0,STARLINK-3700,PAYLOAD,2022-11-03 11:41:09,15.08838844,0.0001821,53.2174,115.8033,46.4886,313.6257,7.2679e-05,8.69e-06,0.0,0 STARLINK-3700,1 51956U 22025A   22307.48691207  .00000869  00000-0  72679-4 0  9996,2 51956  53.2174 115.8033 0001821  46.4886 313.6257 15.08838844 37779,6917.884,95.438,541.009,538.489,0.0
51956.0,STARLINK-3700,PAYLOAD,2022-11-04 11:31:54,15.08863576,0.0001866,53.2178,111.3432,43.0236,317.0902,-2.7329e-05,-7.23e-06,0.0,0 STARLINK-3700,1 51956U 22025A   22308.48049677 -.00000723  00000-0 -27329-4 0  9998,2 51956  53.2178 111.3432 0001866  43.0236 317.0902 15.08863576 37920,6917.808000000001,95.436,540.964,538.382,0.0
51956.0,STARLINK-3700,PAYLOAD,2022-11-04 16:18:07,15.08786658,0.0001305,53.2176,110.4514,42.3599,317.7494,0.0010046,0.00015713,0.0,0 STARLINK-3700,1 51956U 22025A   22308.67925012  .00015713  00000-0  10046-2 0  9994,2 51956  53.2176 110.4514 0001305  42.3599 317.7494 15.08786658 37952,6918.043000000002,95.441,540.811,539.006,0.0
51956.0,STARLINK-3700,PAYLOAD,2022-11-04 21:04:14,15.08838427,0.0001915,53.2181,109.5606,44.0168,316.0976,9.9476e-05,1.295e-05,0.0,0 STARLINK-3700,1 51956U 22025A   22308.87795009  .00001295  00000-0  99476-4 0  9993,2 51956  53.2181 109.5606 0001915  44.0168 316.0976 15.08838427 36898,6917.885,95.438,541.075,538.425,0.0
51956.0,STARLINK-3700,PAYLOAD,2022-11-05 09:47:20,15.08839315,0.0001958,53.218,107.182,47.3948,312.7209,-3.5941e-05,-8.599999999999999e-06,0.0,0 STARLINK-3700,1 51956U 22025A   22309.40787397 -.00000860  00000-0 -35941-4 0  9990,2 51956  53.2180 107.1820 0001958  47.3948 312.7209 15.08839315 36976,6917.882,95.438,541.102,538.393,0.0
51956.0,STARLINK-3700,PAYLOAD,2022-11-05 17:44:16,15.08834531,0.0001922,53.2176,105.6947,40.9316,319.182,-7.9104e-05,-1.547e-05,0.0,0 STARLINK-3700,1 51956U 22025A   22309.73907821 -.00001547  00000-0 -79104-4 0  9994,2 51956  53.2176 105.6947 0001922  40.9316 319.1820 15.08834531 37025,6917.897,95.438,541.092,538.432,0.0
